{
    "links": {
        "self": "http://www.neowsapp.com/rest/v1/neo/3795151?api_key=iIulBulltgU6a56xZRHN4H3l9WmuAYTsLGpBGhQ2"
    },
    "id": "3795151",
    "neo_reference_id": "3795151",
    "name": "(2017 YE8)",
    "designation": "2017 YE8",
    "nasa_jpl_url": "http://ssd.jpl.nasa.gov/sbdb.cgi?sstr=3795151",
    "absolute_magnitude_h": 25.5,
    "estimated_diameter": {
        "kilometers": {
            "estimated_diameter_min": 0.0211132445,
            "estimated_diameter_max": 0.0472106499
        },
        "meters": {
            "estimated_diameter_min": 21.113244479,
            "estimated_diameter_max": 47.2106498806
        },
        "miles": {
            "estimated_diameter_min": 0.0131191578,
            "estimated_diameter_max": 0.0293353287
        },
        "feet": {
            "estimated_diameter_min": 69.2691770164,
            "estimated_diameter_max": 154.8905885541
        }
    },
    "is_potentially_hazardous_asteroid": false,
    "close_approach_data": [
        {
            "close_approach_date": "2014-07-09",
            "close_approach_date_full": "2014-Jul-09 17:33",
            "epoch_date_close_approach": 1404927180000,
            "relative_velocity": {
                "kilometers_per_second": "14.4098589917",
                "kilometers_per_hour": "51875.4923701398",
                "miles_per_hour": "32233.413578546"
            },
            "miss_distance": {
                "astronomical": "0.0510108048",
                "lunar": "19.8432030672",
                "kilometers": "7631107.745065776",
                "miles": "4741750.4748926688"
            },
            "orbiting_body": "Earth"
        },
        {
            "close_approach_date": "2017-12-22",
            "close_approach_date_full": "2017-Dec-22 19:44",
            "epoch_date_close_approach": 1513971840000,
            "relative_velocity": {
                "kilometers_per_second": "13.5221336572",
                "kilometers_per_hour": "48679.6811658282",
                "miles_per_hour": "30247.6607777336"
            },
            "miss_distance": {
                "astronomical": "0.0258931091",
                "lunar": "10.0724194399",
                "kilometers": "3873553.969037617",
                "miles": "2406914.8262364346"
            },
            "orbiting_body": "Earth"
        },
        {
            "close_approach_date": "2019-06-13",
            "close_approach_date_full": "2019-Jun-13 19:09",
            "epoch_date_close_approach": 1560452940000,
            "relative_velocity": {
                "kilometers_per_second": "9.1531060387",
                "kilometers_per_hour": "32951.181739383",
                "miles_per_hour": "20474.5828980072"
            },
            "miss_distance": {
                "astronomical": "0.092003238",
                "lunar": "35.789259582",
                "kilometers": "13763488.43790306",
                "miles": "8552235.142899828"
            },
            "orbiting_body": "Venus"
        }
    ],
    "orbital_data": {
        "orbit_id": "3",
        "orbit_determination_date": "2018-02-04 07:23:30",
        "first_observation_date": "2017-12-29",
        "last_observation_date": "2018-01-15",
        "data_arc_in_days": 17,
        "observations_used": 24,
        "orbit_uncertainty": "8",
        "minimum_orbit_intersection": ".00360235",
        "jupiter_tisserand_invariant": "4.737",
        "epoch_osculation": "2458131.5",
        "eccentricity": ".4572895977200189",
        "semi_major_axis": "1.353279515807909",
        "inclination": "10.49798215581794",
        "ascending_node_longitude": "93.59485164799874",
        "orbital_period": "575.0156819064587",
        "perihelion_distance": ".7344388704213684",
        "perihelion_argument": "279.8466205700515",
        "aphelion_distance": "1.97212016119445",
        "perihelion_time": "2458058.666008558909",
        "mean_anomaly": "45.59916841199848",
        "mean_motion": ".626069881792482",
        "equinox": "J2000",
        "orbit_class": {
            "orbit_class_type": "APO",
            "orbit_class_description": "Near-Earth asteroid orbits which cross the Earth’s orbit similar to that of 1862 Apollo",
            "orbit_class_range": "a (semi-major axis) > 1.0 AU; q (perihelion) < 1.017 AU"
        }
    },
    "is_sentry_object": false
}